{
    "links": {
        "self": "http://www.neowsapp.com/rest/v1/neo/3618063?api_key=iIulBulltgU6a56xZRHN4H3l9WmuAYTsLGpBGhQ2"
    },
    "id": "3618063",
    "neo_reference_id": "3618063",
    "name": "(2012 WE)",
    "designation": "2012 WE",
    "nasa_jpl_url": "http://ssd.jpl.nasa.gov/sbdb.cgi?sstr=3618063",
    "absolute_magnitude_h": 24.6,
    "estimated_diameter": {
        "kilometers": {
            "estimated_diameter_min": 0.0319561887,
            "estimated_diameter_max": 0.0714562102
        },
        "meters": {
            "estimated_diameter_min": 31.9561886721,
            "estimated_diameter_max": 71.4562101727
        },
        "miles": {
            "estimated_diameter_min": 0.0198566489,
            "estimated_diameter_max": 0.0444008168
        },
        "feet": {
            "estimated_diameter_min": 104.8431420431,
            "estimated_diameter_max": 234.436392583
        }
    },
    "is_potentially_hazardous_asteroid": false,
    "close_approach_data": [
        {
            "close_approach_date": "2012-11-10",
            "close_approach_date_full": "2012-Nov-10 12:05",
            "epoch_date_close_approach": 1352549100000,
            "relative_velocity": {
                "kilometers_per_second": "26.6150758683",
                "kilometers_per_hour": "95814.2731258224",
                "miles_per_hour": "59535.2632097645"
            },
            "miss_distance": {
                "astronomical": "0.0282544452",
                "lunar": "10.9909791828",
                "kilometers": "4226804.819951724",
                "miles": "2626414.7266488312"
            },
            "orbiting_body": "Earth"
        }
    ],
    "orbital_data": {
        "orbit_id": "4",
        "orbit_determination_date": "2017-04-06 08:47:56",
        "first_observation_date": "2012-11-16",
        "last_observation_date": "2012-11-18",
        "data_arc_in_days": 2,
        "observations_used": 11,
        "orbit_uncertainty": "9",
        "minimum_orbit_intersection": ".0274502",
        "jupiter_tisserand_invariant": "4.157",
        "epoch_osculation": "2456248.5",
        "eccentricity": ".6652260239915293",
        "semi_major_axis": "1.49924989733862",
        "inclination": "31.10110000008599",
        "ascending_node_longitude": "230.2665701208073",
        "orbital_period": "670.5164986640242",
        "perihelion_distance": ".5019098491623413",
        "perihelion_argument": "72.76631945006164",
        "aphelion_distance": "2.496589945514899",
        "perihelion_time": "2456191.489738380570",
        "mean_anomaly": "30.60878326467342",
        "mean_motion": ".5368995404546865",
        "equinox": "J2000",
        "orbit_class": {
            "orbit_class_type": "APO",
            "orbit_class_description": "Near-Earth asteroid orbits which cross the Earth’s orbit similar to that of 1862 Apollo",
            "orbit_class_range": "a (semi-major axis) > 1.0 AU; q (perihelion) < 1.017 AU"
        }
    },
    "is_sentry_object": false
}